[{"OBJECT_NAME":"STARLINK-34616","OBJECT_ID":"2025-253B","EPOCH":"2026-03-09T17:17:06.390240","MEAN_MOTION":15.27592386,"ECCENTRICITY":0.00011733,"INCLINATION":43.0023,"RA_OF_ASC_NODE":211.9475,"ARG_OF_PERICENTER":258.2993,"MEAN_ANOMALY":101.7727,"EPHEMERIS_TYPE":0,"CLASSIFICATION_TYPE":"U","NORAD_CAT_ID":66320,"ELEMENT_SET_NO":999,"REV_AT_EPOCH":2033,"BSTAR":0.0014923144,"MEAN_MOTION_DOT":0.00041047,"MEAN_MOTION_DDOT":0},{"OBJECT_NAME":"TITAN 4B R\/B","OBJECT_ID":"2005-016B","EPOCH":"2026-03-09T20:27:57.848832","MEAN_MOTION":15.42682045,"ECCENTRICITY":0.00616552,"INCLINATION":56.9964,"RA_OF_ASC_NODE":245.9411,"ARG_OF_PERICENTER":20.2929,"MEAN_ANOMALY":340.0555,"EPHEMERIS_TYPE":0,"CLASSIFICATION_TYPE":"U","NORAD_CAT_ID":28647,"ELEMENT_SET_NO":999,"REV_AT_EPOCH":37707,"BSTAR":0.00046483736,"MEAN_MOTION_DOT":0.0002164,"MEAN_MOTION_DDOT":0}]
